OBJECT_NAME,OBJECT_ID,EPOCH,MEAN_MOTION,ECCENTRICITY,INCLINATION,RA_OF_ASC_NODE,ARG_OF_PERICENTER,MEAN_ANOMALY,EPHEMERIS_TYPE,CLASSIFICATION_TYPE,NORAD_CAT_ID,ELEMENT_SET_NO,REV_AT_EPOCH,BSTAR,MEAN_MOTION_DOT,MEAN_MOTION_DDOT
STARLINK-37600,2026-123G,2026-07-01T04:36:02.549952,15.75335804,.00018619,53.1565,172.1810,138.8070,221.3091,0,U,69359,999,424,.13670497E-2,.215241E-2,0
STARLINK-37599,2026-123H,2026-07-01T21:19:19.139808,15.81082389,.00006795,53.1567,167.9653,178.1277,181.9749,0,U,69360,999,436,.20726733E-2,.433803E-2,0
STARLINK-37039,2026-123J,2026-07-01T13:11:03.866784,15.75318049,.0000965,53.1604,170.1359,49.1043,311.0061,0,U,69361,999,430,.28048606E-3,.42721E-3,0
STARLINK-37040,2026-123K,2026-07-01T11:52:23.100384,15.81016551,.00012548,53.1565,169.7680,105.4413,254.6748,0,U,69362,999,430,.11057189E-2,.224793E-2,0
STARLINK-37582,2026-123L,2026-07-01T05:54:19.900224,15.75323310,.0001367,53.1558,171.8034,98.8675,261.2500,0,U,69363,999,425,.16992E-2,.269284E-2,0
STARLINK-37309,2026-123M,2026-07-01T06:13:47.903808,15.75376126,.0002481,53.1571,171.1532,126.8538,233.2710,0,U,69364,999,426,.21424E-2,.343498E-2,0
STARLINK-37436,2026-123N,2026-07-01T22:10:32.368800,15.80890646,.00011748,53.1568,167.4617,96.0680,264.0476,0,U,69365,999,437,.10257398E-2,.206839E-2,0
STARLINK-37581,2026-123P,2026-07-01T05:34:32.810880,15.81137376,.0002064,53.1564,170.9719,114.1006,246.0233,0,U,69366,999,426,.19996E-2,.418769E-2,0
STARLINK-37683,2026-123Q,2026-06-30T12:23:08.198304,15.75329960,.0001352,53.1550,175.0558,127.6787,232.4356,0,U,69367,999,414,.86796E-3,.13509E-2,0
STARLINK-37687,2026-123R,2026-07-01T03:51:40.063968,15.81107222,.00037587,53.1574,171.2333,166.5290,193.5834,0,U,69368,999,425,.18024139E-2,.374991E-2,0
STARLINK-37631,2026-123S,2026-07-01T05:47:39.513984,15.75328318,.0001615,53.1593,171.0327,101.9105,258.2097,0,U,69369,999,426,.19082E-2,.303804E-2,0
STARLINK-37673,2026-123T,2026-07-01T06:20:20.280768,15.75305102,.0001166,53.1595,171.1836,68.7626,291.3519,0,U,69370,999,426,.16277E-2,.257343E-2,0
STARLINK-37645,2026-123U,2026-07-01T22:45:43.603776,15.75247827,.00015411,53.1584,167.6242,114.0897,246.0284,0,U,69371,999,437,.22918579E-2,.36647E-2,0
STARLINK-37688,2026-123V,2026-07-01T22:00:01.999584,15.75140424,.00011471,53.1598,167.6176,121.3133,137.9092,0,U,69372,999,558,.58083199E-3,.8895E-3,0
STARLINK-37685,2026-123W,2026-07-01T23:33:56.129760,15.80882743,.00013063,53.1567,167.1071,81.1335,278.9835,0,U,69373,999,438,.10752425E-2,.217035E-2,0
STARLINK-37632,2026-123X,2026-07-01T22:01:49.669536,15.80846822,.00010065,53.1567,167.4180,50.1757,309.9354,0,U,69374,999,437,.11757605E-2,.237568E-2,0
STARLINK-37454,2026-123Y,2026-07-01T12:54:00.482112,15.81046018,.00024314,53.1571,169.3106,142.5208,217.5985,0,U,69375,999,431,.18387757E-2,.381753E-2,0
STARLINK-37485,2026-123Z,2026-07-01T08:00:03.000384,15.75271939,.00008881,53.1576,170.6239,74.3642,63.5013,0,U,69376,999,557,-.71661096E-3,-.109234E-2,0
STARLINK-37439,2026-123AA,2026-07-01T21:48:56.364480,15.80834934,.00017466,53.1565,167.3622,43.6384,316.4776,0,U,69377,999,437,.69887353E-3,.139239E-2,0
STARLINK-37376,2026-123AB,2026-07-01T06:19:52.175712,15.75354491,.0001081,53.1592,171.1789,100.4327,259.6815,0,U,69378,999,426,.16411E-2,.260116E-2,0
STARLINK-37383,2026-123AC,2026-07-01T05:28:03.185760,15.75325922,.00012239,53.1596,170.9362,45.8908,314.2213,0,U,69379,999,426,.15063898E-2,.237779E-2,0
STARLINK-37411,2026-123AD,2026-07-01T05:09:29.234016,15.80952267,.00009476,53.1569,170.8504,106.3861,253.7266,0,U,69380,999,426,.16078268E-2,.330284E-2,0
STARLINK-37427,2026-123AE,2026-07-01T12:38:44.560896,15.81011771,.00010646,53.1564,169.2393,64.0636,296.0497,0,U,69381,999,431,.12389811E-2,.25274E-2,0
QIANFAN-165,2026-124A,2026-07-01T21:13:57.915840,14.16014785,.00036323,88.9987,0.3788,103.1244,257.0349,0,U,69382,999,389,.38015239E-4,.89E-6,0
QIANFAN-166,2026-124B,2026-07-01T20:51:55.226880,14.17062095,.00030892,88.9987,0.3767,99.5874,260.5664,0,U,69383,999,389,.44973474E-4,.105E-5,0
QIANFAN-167,2026-124C,2026-07-01T21:00:08.277120,14.16528229,.00035198,88.9986,0.3772,134.0483,226.0996,0,U,69384,999,389,.3537828E-4,.85E-6,0
QIANFAN-168,2026-124D,2026-07-01T20:34:42.007296,14.17875283,.00041058,88.9986,0.3747,111.0731,249.0897,0,U,69385,999,389,.41960569E-4,.1E-5,0
QIANFAN-169,2026-124E,2026-07-01T20:25:07.437792,14.18289028,.00045736,88.9986,0.3736,123.5450,236.6177,0,U,69386,999,389,.43557698E-4,.104E-5,0
QIANFAN-170,2026-124F,2026-07-01T20:08:02.844384,14.19185667,.00039341,88.9986,0.3718,107.4438,252.7182,0,U,69387,999,389,.3379355E-4,.85E-6,0
QIANFAN-171,2026-124G,2026-07-01T19:50:41.146368,14.20069826,.00037938,88.9986,0.3700,143.6048,216.5400,0,U,69388,999,389,.41694434E-4,.103E-5,0
