STARLINK-37600          
1 69359U 26123G   26182.19169618  .00215241  00000+0  13670-2 0  9999
2 69359  53.1565 172.1810 0001861 138.8070 221.3091 15.75335804  4241
STARLINK-37599          
1 69360U 26123H   26182.88841597  .00433803  00000+0  20727-2 0  9997
2 69360  53.1567 167.9653 0000679 178.1277 181.9749 15.81082389  4362
STARLINK-37039          
1 69361U 26123J   26182.54935031  .00042721  00000+0  28049-3 0  9999
2 69361  53.1604 170.1359 0000965  49.1043 311.0061 15.75318049  4305
STARLINK-37040          
1 69362U 26123K   26182.49471181  .00224793  00000+0  11057-2 0  9996
2 69362  53.1565 169.7680 0001254 105.4413 254.6748 15.81016551  4306
STARLINK-37582          
1 69363U 26123L   26182.24606366  .00269284  00000+0  16992-2 0  9992
2 69363  53.1558 171.8034 0001367  98.8675 261.2500 15.75323310  4257
STARLINK-37309          
1 69364U 26123M   26182.25958222  .00343498  00000+0  21424-2 0  9991
2 69364  53.1571 171.1532 0002481 126.8538 233.2710 15.75376126  4263
STARLINK-37436          
1 69365U 26123N   26182.92398575  .00206839  00000+0  10257-2 0  9994
2 69365  53.1568 167.4617 0001174  96.0680 264.0476 15.80890646  4373
STARLINK-37581          
1 69366U 26123P   26182.23232420  .00418769  00000+0  19996-2 0  9991
2 69366  53.1564 170.9719 0002064 114.1006 246.0233 15.81137376  4269
STARLINK-37683          
1 69367U 26123Q   26181.51606711  .00135090  00000+0  86796-3 0  9996
2 69367  53.1550 175.0558 0001352 127.6787 232.4356 15.75329960  4143
STARLINK-37687          
1 69368U 26123R   26182.16088037  .00374991  00000+0  18024-2 0  9997
2 69368  53.1574 171.2333 0003758 166.5290 193.5834 15.81107222  4254
STARLINK-37631          
1 69369U 26123S   26182.24142956  .00303804  00000+0  19082-2 0  9998
2 69369  53.1593 171.0327 0001615 101.9105 258.2097 15.75328318  4260
STARLINK-37673          
1 69370U 26123T   26182.26412362  .00257343  00000+0  16277-2 0  9992
2 69370  53.1595 171.1836 0001166  68.7626 291.3519 15.75305102  4262
STARLINK-37645          
1 69371U 26123U   26182.94842134  .00366470  00000+0  22919-2 0  9994
2 69371  53.1584 167.6242 0001541 114.0897 246.0284 15.75247827  4371
STARLINK-37688          
1 69372U 26123V   26182.91668981  .00088950  00000+0  58083-3 0  9994
2 69372  53.1598 167.6176 0001147 121.3133 137.9092 15.75140424  5583
STARLINK-37685          
1 69373U 26123W   26182.98189965  .00217035  00000+0  10752-2 0  9990
2 69373  53.1567 167.1071 0001306  81.1335 278.9835 15.80882743  4384
STARLINK-37632          
1 69374U 26123X   26182.91793599  .00237568  00000+0  11758-2 0  9998
2 69374  53.1567 167.4180 0001006  50.1757 309.9354 15.80846822  4378
STARLINK-37454          
1 69375U 26123Y   26182.53750558  .00381753  00000+0  18388-2 0  9997
2 69375  53.1571 169.3106 0002431 142.5208 217.5985 15.81046018  4311
STARLINK-37485          
1 69376U 26123Z   26182.33336806 -.00109234  00000+0 -71661-3 0  9990
2 69376  53.1576 170.6239 0000888  74.3642  63.5013 15.75271939  5572
STARLINK-37439          
1 69377U 26123AA  26182.90898570  .00139239  00000+0  69887-3 0  9998
2 69377  53.1565 167.3622 0001746  43.6384 316.4776 15.80834934  4375
STARLINK-37376          
1 69378U 26123AB  26182.26379833  .00260116  00000+0  16411-2 0  9997
2 69378  53.1592 171.1789 0001081 100.4327 259.6815 15.75354491  4263
STARLINK-37383          
1 69379U 26123AC  26182.22781465  .00237779  00000+0  15064-2 0  9994
2 69379  53.1596 170.9362 0001223  45.8908 314.2213 15.75325922  4264
STARLINK-37411          
1 69380U 26123AD  26182.21492169  .00330284  00000+0  16078-2 0  9996
2 69380  53.1569 170.8504 0000947 106.3861 253.7266 15.80952267  4265
STARLINK-37427          
1 69381U 26123AE  26182.52690464  .00252740  00000+0  12390-2 0  9992
2 69381  53.1564 169.2393 0001064  64.0636 296.0497 15.81011771  4319
QIANFAN-165             
1 69382U 26124A   26182.88469810  .00000089  00000+0  38015-4 0  9993
2 69382  88.9987   0.3788 0003632 103.1244 257.0349 14.16014785  3891
QIANFAN-166             
1 69383U 26124B   26182.86938920  .00000105  00000+0  44973-4 0  9994
2 69383  88.9987   0.3767 0003089  99.5874 260.5664 14.17062095  3899
QIANFAN-167             
1 69384U 26124C   26182.87509580  .00000085  00000+0  35378-4 0  9998
2 69384  88.9986   0.3772 0003519 134.0483 226.0996 14.16528229  3894
QIANFAN-168             
1 69385U 26124D   26182.85743064  .00000100  00000+0  41961-4 0  9997
2 69385  88.9986   0.3747 0004105 111.0731 249.0897 14.17875283  3891
QIANFAN-169             
1 69386U 26124E   26182.85078053  .00000104  00000+0  43558-4 0  9995
2 69386  88.9986   0.3736 0004573 123.5450 236.6177 14.18289028  3895
QIANFAN-170             
1 69387U 26124F   26182.83892181  .00000085  00000+0  33794-4 0  9999
2 69387  88.9986   0.3718 0003934 107.4438 252.7182 14.19185667  3893
QIANFAN-171             
1 69388U 26124G   26182.82686512  .00000103  00000+0  41694-4 0  9997
2 69388  88.9986   0.3700 0003793 143.6048 216.5400 14.20069826  3898
